COSMOS 1933             
1 18958U 88020A   26044.13455995  .00003596  00000+0  17664-3 0  9995
2 18958  82.5117 275.2072 0002810 300.7591  59.3366 15.17766590 46502
SL-3 R/B                
1 19046U 88032B   26044.10746592  .00006270  00000+0  29546-3 0  9994
2 19046  97.5149  27.4590 0024937 323.4531  36.5001 15.19590395 48374
SL-16 R/B               
1 19120U 88039B   26044.17742838  .00000142  00000+0  89963-4 0  9992
2 19120  71.0145 120.3820 0021240  11.5924 348.5686 14.19612194954905
COSMOS 1953             
1 19210U 88050A   26043.87585351  .00010063  00000+0  36632-3 0  9993
2 19210  82.5088 183.1871 0010874 206.7993 153.2686 15.28028623 33993
SL-8 R/B                
1 19257U 88053B   26043.70543795  .00000236  00000+0  85108-4 0  9999
2 19257  74.0485 158.5144 0020599 342.3079 122.7792 14.38900534973001
COSMOS 1975             
1 19573U 88093A   26043.77177022  .00008995  00000+0  33134-3 0  9998
2 19573  82.5221 142.6834 0010313 255.9086 104.1008 15.27634918 15600
SL-14 R/B               
1 19574U 88093B   26044.14785381  .00000481  00000+0  52534-4 0  9992
2 19574  82.5278  65.0884 0022157 117.4784 314.2767 14.85627812997391
SL-16 R/B               
1 19650U 88102B   26043.97077755  .00000286  00000+0  16875-3 0  9997
2 19650  70.9983 203.5036 0012647  41.8726 318.3362 14.16149775923393
INTERCOSMOS 24          
1 20261U 89080A   26044.17992818  .00000502  00000+0  14522-3 0  9990
2 20261  82.6060 120.3588 1187755 349.7460   8.1197 12.59522942663719
SL-14 R/B               
1 20262U 89080C   26043.91013024  .00000478  00000+0  14425-3 0  9999
2 20262  82.5950 189.0921 1229536 241.4070 105.7988 12.50462187657056
DELTA 1 R/B             
1 20323U 89089B   26044.13408364  .00000370  00000+0  10033-3 0  9998
2 20323  97.0724 255.4753 0068558 199.1628 160.6990 14.50642460892170
ARIANE 40 R/B           
1 20443U 90005H   26044.14404995  .00000276  00000+0  10147-3 0  9999
2 20443  98.3139 105.5303 0008889 279.1554  80.8629 14.39853832889274
